[{"OBJECT_NAME":"YAOGAN-33 01","OBJECT_ID":"2020-103A","EPOCH":"2026-03-09T23:33:33.988896","MEAN_MOTION":14.58835093,"ECCENTRICITY":0.00042815,"INCLINATION":98.0558,"RA_OF_ASC_NODE":313.645,"ARG_OF_PERICENTER":85.5228,"MEAN_ANOMALY":274.646,"EPHEMERIS_TYPE":0,"CLASSIFICATION_TYPE":"U","NORAD_CAT_ID":47302,"ELEMENT_SET_NO":999,"REV_AT_EPOCH":27684,"BSTAR":0.00014306185,"MEAN_MOTION_DOT":6.25e-6,"MEAN_MOTION_DDOT":0},{"OBJECT_NAME":"COSMOS 2251 DEB","OBJECT_ID":"1993-036AQV","EPOCH":"2026-03-09T04:38:44.866176","MEAN_MOTION":14.58439323,"ECCENTRICITY":0.00619228,"INCLINATION":74.0321,"RA_OF_ASC_NODE":138.1125,"ARG_OF_PERICENTER":269.9498,"MEAN_ANOMALY":89.4571,"EPHEMERIS_TYPE":0,"CLASSIFICATION_TYPE":"U","NORAD_CAT_ID":35724,"ELEMENT_SET_NO":999,"REV_AT_EPOCH":88789,"BSTAR":0.00027421093,"MEAN_MOTION_DOT":1.274e-5,"MEAN_MOTION_DDOT":0}]
